{
  "cities": [
    {
      "id": 1,
      "name": "Guaymallén",
      "cp": [
        "M5533",
        "M5523",
        "M5525",
        "M5649",
        "M5626",
        "M5638",
        "M5527",
        "M5521",
        "M5519",
        "M5641"
      ]
    },
    {
      "id": 2,
      "name": "Luján de Cuyo",
      "cp": [
        "M5509",
        "M5549",
        "M5507",
        "M5505",
        "M5556",
        "M5528",
        "M5524",
        "M5634",
        "M5550",
        "M5613",
        "M5534",
        "M5544",
        "M5552",
        "M5546"
      ]
    },
    {
      "id": 3,
      "name": "Godoy Cruz",
      "cp": ["M5501", "M5504", "M5503", "M5547"]
    },
    {
      "id": 4,
      "name": "Las Heras",
      "cp": [
        "M5541",
        "M5543",
        "M5539",
        "M5557",
        "M5500",
        "M5545",
        "M5621",
        "M5549",
        "M5530",
        "M5542",
        "M5553",
        "M5544",
        "M5540",
        "M5551",
        "M5555",
        "M5435"
      ]
    },
    {
      "id": 5,
      "name": "Mendoza",
      "cp": ["M5500", "M5502"]
    },
    {
      "id": 6,
      "name": "Maipú",
      "cp": [
        "M5587",
        "M5517",
        "M5531",
        "M5513",
        "M5578",
        "M5658",
        "M5517",
        "M5529",
        "M5522",
        "M5586",
        "M5531",
        "M5606",
        "M5591",
        "M5672",
        "M5656",
        "M5593",
        "M5516",
        "M5515",
        "M5651",
        "M5581",
        "M5650",
        "M5655",
        "M5589",
        "M5588"
      ]
    }
  ],
  "localities": [
    {
      "name": "Bermejo",
      "postal_code": "M5533"
    },
    {
      "name": "Buena Nueva",
      "postal_code": "M5523"
    },
    {
      "name": "Buena Vista",
      "postal_code": "M5525"
    },
    {
      "name": "Canal Pescara",
      "postal_code": "M5525"
    },
    {
      "name": "Capilla del Rosario",
      "postal_code": "M5523"
    },
    {
      "name": "Colonia Santa Teresa",
      "postal_code": "M5649"
    },
    {
      "name": "Colonia Segovia",
      "postal_code": "M5646"
    },
    {
      "name": "Coronel Dorrego",
      "postal_code": "M5626"
    },
    {
      "name": "El Sauce",
      "postal_code": "M5533"
    },
    {
      "name": "Jesús Nazareno",
      "postal_code": "M5638"
    },
    {
      "name": "La Primavera",
      "postal_code": "M5527"
    },
    {
      "name": "Limon",
      "postal_code": "M5533"
    },
    {
      "name": "Los Corralitos",
      "postal_code": "M5527"
    },
    {
      "name": "Los Corredores",
      "postal_code": "M5521"
    },
    {
      "name": "Nueva Ciudad",
      "postal_code": "M5519"
    },
    {
      "name": "Paradero la Superiora",
      "postal_code": "M5525"
    },
    {
      "name": "Primavera",
      "postal_code": "M5641"
    },
    {
      "name": "Rodeo de la Cruz",
      "postal_code": "M5525"
    },
    {
      "name": "San José de Guaymallén",
      "postal_code": "M5519"
    },
    {
      "name": "Vergel",
      "postal_code": "M5527"
    },
    {
      "name": "Villa los Corralitos",
      "postal_code": "M5527"
    },
    {
      "name": "Villa Nueva de Guaymallén",
      "postal_code": "M5521"
    },
    {
      "name": "Villa Suava",
      "postal_code": "M5523"
    },
    {
      "name": "Villas Unidas 25 de Mayo",
      "postal_code": "M5519"
    },
    {
      "name": "Mendoza",
      "postal_code": "M5500"
    },
    {
      "name": "Godoy Cruz",
      "postal_code": "M5501"
    },
    {
      "name": "San Fransisco del Monte",
      "postal_code": "M5503"
    },
    {
      "name": "Villa Hipódromo",
      "postal_code": "M5547"
    },
    {
      "name": "Algarrobal Arriba",
      "postal_code": "M5541"
    },
    {
      "name": "Alto Grande",
      "postal_code": "M5543"
    },
    {
      "name": "Arenales",
      "postal_code": "M5539"
    },
    {
      "name": "Barreal de la Pampa Seca",
      "postal_code": "M5539"
    },
    {
      "name": "Barreal Pájaro Muerto",
      "postal_code": "M5539"
    },
    {
      "name": "Buitrera",
      "postal_code": "M5539"
    },
    {
      "name": "Ca del Diablo",
      "postal_code": "M5539"
    },
    {
      "name": "Capdeville",
      "postal_code": "M5543"
    },
    {
      "name": "Caracoles",
      "postal_code": "M5557"
    },
    {
      "name": "Casilla",
      "postal_code": "M5539"
    },
    {
      "name": "Cerrillos Negros",
      "postal_code": "M5539"
    },
    {
      "name": "Cerro Aconcagua",
      "postal_code": "M5500"
    },
    {
      "name": "Cerro Agua Salada",
      "postal_code": "M5539"
    },
    {
      "name": "Cerro Aguadita",
      "postal_code": "M5539"
    },
    {
      "name": "Cerro Alojamiento",
      "postal_code": "M5539"
    },
    {
      "name": "Cerro Angostura",
      "postal_code": "M5539"
    },
    {
      "name": "Cerro Aspero",
      "postal_code": "M5539"
    },
    {
      "name": "Cerro Barauca",
      "postal_code": "M5539"
    },
    {
      "name": "Cerro Bay",
      "postal_code": "M5539"
    },
    {
      "name": "Cerro Blanco",
      "postal_code": "M5539"
    },
    {
      "name": "Cerro Bonete",
      "postal_code": "M5545"
    },
    {
      "name": "Cerro Bravo",
      "postal_code": "M5539"
    },
    {
      "name": "Cerro Catedral",
      "postal_code": "M5539"
    },
    {
      "name": "Cerro Chiquero",
      "postal_code": "M5539"
    },
    {
      "name": "Cerro Cielo",
      "postal_code": "M5539"
    },
    {
      "name": "Cerro Cienaga",
      "postal_code": "M5539"
    },
    {
      "name": "Cerro Clementino",
      "postal_code": "M5539"
    },
    {
      "name": "Cerro Color",
      "postal_code": "M5539"
    },
    {
      "name": "Cerro Cortaderas",
      "postal_code": "M5539"
    },
    {
      "name": "Cerro Cuerno",
      "postal_code": "M5539"
    },
    {
      "name": "Cerro Cupula",
      "postal_code": "M5539"
    },
    {
      "name": "Cerro de los Burros",
      "postal_code": "M5539"
    },
    {
      "name": "Cerro de los Dedos",
      "postal_code": "M5539"
    },
    {
      "name": "Cerro de los Potrerillos",
      "postal_code": "M5500"
    },
    {
      "name": "Cerro del Chacay",
      "postal_code": "M5621"
    },
    {
      "name": "Cerro del Medio",
      "postal_code": "M5539"
    },
    {
      "name": "Cerro del Rincón Bayo",
      "postal_code": "M5539"
    },
    {
      "name": "Cerro Durazno",
      "postal_code": "M5539"
    },
    {
      "name": "Cerro el Guanaco",
      "postal_code": "M5539"
    },
    {
      "name": "Cerro Fundicion",
      "postal_code": "M5539"
    },
    {
      "name": "Cerro Grande",
      "postal_code": "M5539"
    },
    {
      "name": "Cerro Horqueta",
      "postal_code": "M5539"
    },
    {
      "name": "Cerro Invernada",
      "postal_code": "M5539"
    },
    {
      "name": "Cerro Juan Pobre",
      "postal_code": "M5539"
    },
    {
      "name": "Cerro L Corrales",
      "postal_code": "M5539"
    },
    {
      "name": "Cerro la Mano",
      "postal_code": "M5539"
    },
    {
      "name": "Cerro los Dientitos",
      "postal_code": "M5539"
    },
    {
      "name": "Cerro Manantial",
      "postal_code": "M5539"
    },
    {
      "name": "Cerro Masillas",
      "postal_code": "M5539"
    },
    {
      "name": "Cerro Melocoton",
      "postal_code": "M5539"
    },
    {
      "name": "Cerro México",
      "postal_code": "M5539"
    },
    {
      "name": "Cerro Montura",
      "postal_code": "M5539"
    },
    {
      "name": "Cerro Nevado",
      "postal_code": "M5621"
    },
    {
      "name": "Cerro Pampa Seca",
      "postal_code": "M5539"
    },
    {
      "name": "Cerro Pan de Azucar",
      "postal_code": "M5539"
    },
    {
      "name": "Cerro Panta",
      "postal_code": "M5539"
    },
    {
      "name": "Cerro Pelado",
      "postal_code": "M5549"
    },
    {
      "name": "Cerro Ponderado",
      "postal_code": "M5539"
    },
    {
      "name": "Cerro Pozo",
      "postal_code": "M5539"
    },
    {
      "name": "Cerro Punta de Agua",
      "postal_code": "M5539"
    },
    {
      "name": "Cerro Puntilla Negra",
      "postal_code": "M5539"
    },
    {
      "name": "Cerro Puntudo",
      "postal_code": "M5539"
    },
    {
      "name": "Cerro Puquios",
      "postal_code": "M5539"
    },
    {
      "name": "Cerro Riquitipanche",
      "postal_code": "M5539"
    },
    {
      "name": "Cerro San Lorenzo",
      "postal_code": "M5539"
    },
    {
      "name": "Cerro Santa María",
      "postal_code": "M5539"
    },
    {
      "name": "Cerro Sapo",
      "postal_code": "M5539"
    },
    {
      "name": "Cerro Tigre",
      "postal_code": "M5539"
    },
    {
      "name": "Cerro Tolosa",
      "postal_code": "M5539"
    },
    {
      "name": "Cerro Tunduquera",
      "postal_code": "M5539"
    },
    {
      "name": "Cerro Yalguaras",
      "postal_code": "M5621"
    },
    {
      "name": "Cerro Yareta",
      "postal_code": "M5539"
    },
    {
      "name": "Cerros Colorados",
      "postal_code": "M5539"
    },
    {
      "name": "Colon Sandalho",
      "postal_code": "M5545"
    },
    {
      "name": "Colonia 3 de Mayo",
      "postal_code": "M5543"
    },
    {
      "name": "Colonia Alemana",
      "postal_code": "M5543"
    },
    {
      "name": "Cristo Redentor",
      "postal_code": "M5557"
    },
    {
      "name": "Cto del Tigre",
      "postal_code": "M5539"
    },
    {
      "name": "El Algarrobal",
      "postal_code": "M5541"
    },
    {
      "name": "El Challao",
      "postal_code": "M5539"
    },
    {
      "name": "El Infierno",
      "postal_code": "M5539"
    },
    {
      "name": "El Pastal",
      "postal_code": "M5530"
    },
    {
      "name": "El Plumerillo",
      "postal_code": "M5542"
    },
    {
      "name": "El Puestito",
      "postal_code": "M5539"
    },
    {
      "name": "El Resguardo",
      "postal_code": "M5543"
    },
    {
      "name": "Empalme Frontera",
      "postal_code": "M5553"
    },
    {
      "name": "Empalme Resguardo",
      "postal_code": "M5539"
    },
    {
      "name": "Espejo",
      "postal_code": "M5539"
    },
    {
      "name": "Espejo Resguardado",
      "postal_code": "M5539"
    },
    {
      "name": "Estacion Uspallata",
      "postal_code": "M5539"
    },
    {
      "name": "Estancia Casa de Piedra",
      "postal_code": "M5539"
    },
    {
      "name": "Estancia Cueva del Toro",
      "postal_code": "M5539"
    },
    {
      "name": "Estancia el Carrizal",
      "postal_code": "M5539"
    },
    {
      "name": "Estancia Jocoli",
      "postal_code": "M5539"
    },
    {
      "name": "Estancia San Martín",
      "postal_code": "M5539"
    },
    {
      "name": "Estancia Uspallata",
      "postal_code": "M5545"
    },
    {
      "name": "Estancia Villavicencio",
      "postal_code": "M5539"
    },
    {
      "name": "Estancia Yalguaraz",
      "postal_code": "M5539"
    },
    {
      "name": "Garganta de Leon",
      "postal_code": "M5539"
    },
    {
      "name": "Gobernador Benegas",
      "postal_code": "M5544"
    },
    {
      "name": "Guido",
      "postal_code": "M5549"
    },
    {
      "name": "Hornito del Gringo",
      "postal_code": "M5543"
    },
    {
      "name": "Hornos de Moyano",
      "postal_code": "M5543"
    },
    {
      "name": "Jocoli",
      "postal_code": "M5543"
    },
    {
      "name": "La Angostura",
      "postal_code": "M5539"
    },
    {
      "name": "La Boveda",
      "postal_code": "M5539"
    },
    {
      "name": "La Casa del Tigre",
      "postal_code": "M5539"
    },
    {
      "name": "La Cortadera",
      "postal_code": "M5545"
    },
    {
      "name": "La Fundicion",
      "postal_code": "M5539"
    },
    {
      "name": "La Horqueta",
      "postal_code": "M5539"
    },
    {
      "name": "La Hullera",
      "postal_code": "M5549"
    },
    {
      "name": "La Jaula",
      "postal_code": "M5539"
    },
    {
      "name": "La Pirata",
      "postal_code": "M5553"
    },
    {
      "name": "Las Canteras",
      "postal_code": "M5539"
    },
    {
      "name": "Las Cortaderas",
      "postal_code": "M5545"
    },
    {
      "name": "Las Cuevas",
      "postal_code": "M5557"
    },
    {
      "name": "Las Heras",
      "postal_code": "M5540"
    },
    {
      "name": "Loma Colorada",
      "postal_code": "M5539"
    },
    {
      "name": "Loma de los Burros",
      "postal_code": "M5539"
    },
    {
      "name": "Loma Sola",
      "postal_code": "M5539"
    },
    {
      "name": "Lomas Bayas",
      "postal_code": "M5539"
    },
    {
      "name": "Los Chacayes",
      "postal_code": "M5539"
    },
    {
      "name": "Los Penitentes",
      "postal_code": "M5553"
    },
    {
      "name": "Los Tamarindos",
      "postal_code": "M5539"
    },
    {
      "name": "Matheu Norte",
      "postal_code": "M5543"
    },
    {
      "name": "Minas Salagasta",
      "postal_code": "M5545"
    },
    {
      "name": "Monte Bayo",
      "postal_code": "M5539"
    },
    {
      "name": "Monumento al Ejercito de los Andes",
      "postal_code": "M5539"
    },
    {
      "name": "Moyano",
      "postal_code": "M5543"
    },
    {
      "name": "P San Ignacio",
      "postal_code": "M5539"
    },
    {
      "name": "Pampa Yalguaraz",
      "postal_code": "M5539"
    },
    {
      "name": "Panqueua",
      "postal_code": "M5539"
    },
    {
      "name": "Paramillo de las Vacas",
      "postal_code": "M5500"
    },
    {
      "name": "Paso Hondo",
      "postal_code": "M5541"
    },
    {
      "name": "Plaza de Mulas",
      "postal_code": "M5500"
    },
    {
      "name": "Po de Contrabandista",
      "postal_code": "M5539"
    },
    {
      "name": "Po de la Cumbre",
      "postal_code": "M5539"
    },
    {
      "name": "Po de la Quebrada Honda",
      "postal_code": "M5539"
    },
    {
      "name": "Po del Rubio",
      "postal_code": "M5539"
    },
    {
      "name": "Po Valle Hermoso",
      "postal_code": "M5539"
    },
    {
      "name": "Polvareda",
      "postal_code": "M5551"
    },
    {
      "name": "Portillo Agua de Toro",
      "postal_code": "M5545"
    },
    {
      "name": "Portillo de Indio",
      "postal_code": "M5539"
    },
    {
      "name": "Portillo de la Lágrima Viva",
      "postal_code": "M5539"
    },
    {
      "name": "Portillo de las Vacas",
      "postal_code": "M5539"
    },
    {
      "name": "Portillo de Lomas Coloradas",
      "postal_code": "M5539"
    },
    {
      "name": "Portillo del Medio",
      "postal_code": "M5539"
    },
    {
      "name": "Portillo del Norte",
      "postal_code": "M5539"
    },
    {
      "name": "Portillo del Tigre",
      "postal_code": "M5539"
    },
    {
      "name": "Portillo la Pampa",
      "postal_code": "M5539"
    },
    {
      "name": "Portillo Quemado",
      "postal_code": "M5539"
    },
    {
      "name": "Puente del Inca",
      "postal_code": "M5555"
    },
    {
      "name": "Puesto Agua de Zanjon",
      "postal_code": "M5539"
    },
    {
      "name": "Puesto Carrizalito",
      "postal_code": "M5539"
    },
    {
      "name": "Puesto Chambon",
      "postal_code": "M5539"
    },
    {
      "name": "Puesto el Peral",
      "postal_code": "M5539"
    },
    {
      "name": "Puesto el Totoral",
      "postal_code": "M5539"
    },
    {
      "name": "Puesto Escondido",
      "postal_code": "M5539"
    },
    {
      "name": "Puesto Guamparito",
      "postal_code": "M5539"
    },
    {
      "name": "Puesto la Gruta",
      "postal_code": "M5539"
    },
    {
      "name": "Puesto la Mojada",
      "postal_code": "M5539"
    },
    {
      "name": "Puesto las Higueras",
      "postal_code": "M5539"
    },
    {
      "name": "Puesto los Alojamientos",
      "postal_code": "M5539"
    },
    {
      "name": "Puesto los Pajaritos",
      "postal_code": "M5539"
    },
    {
      "name": "Puesto Riquitipanche",
      "postal_code": "M5539"
    },
    {
      "name": "Puesto Santa Clara de Arriba",
      "postal_code": "M5539"
    },
    {
      "name": "Punta de Vacas",
      "postal_code": "M5553"
    },
    {
      "name": "Ramblon",
      "postal_code": "M5435"
    },
    {
      "name": "Río Blanco",
      "postal_code": "M5553"
    },
    {
      "name": "Rodeo Grande",
      "postal_code": "M5539"
    },
    {
      "name": "San Alberto",
      "postal_code": "M5545"
    },
    {
      "name": "San Ignacio",
      "postal_code": "M5539"
    },
    {
      "name": "Sanchez de Bustamante",
      "postal_code": "M5539"
    },
    {
      "name": "Santa Elena",
      "postal_code": "M5539"
    },
    {
      "name": "Sierra Ansilta",
      "postal_code": "M5539"
    },
    {
      "name": "Sierra de las Higueras",
      "postal_code": "M5545"
    },
    {
      "name": "Sierra del Tontal",
      "postal_code": "M5539"
    },
    {
      "name": "Teniente Benjamín Matienzo",
      "postal_code": "M5539"
    },
    {
      "name": "Termas Villavicencio",
      "postal_code": "M5545"
    },
    {
      "name": "Tropero Sosa",
      "postal_code": "M5539"
    },
    {
      "name": "Uspallata",
      "postal_code": "M5545"
    },
    {
      "name": "Valle de Uspallata",
      "postal_code": "M5545"
    },
    {
      "name": "Vega de los Burros",
      "postal_code": "M5539"
    },
    {
      "name": "Vegas de los Corrales de Araya",
      "postal_code": "M5539"
    },
    {
      "name": "Villavicencio",
      "postal_code": "M5539"
    },
    {
      "name": "Vra de las Vacas",
      "postal_code": "M5539"
    },
    {
      "name": "Zanjon Amarillo",
      "postal_code": "M5553"
    },
    {
      "name": "Agrelo",
      "postal_code": "M5509"
    },
    {
      "name": "Agua de los Manantiales",
      "postal_code": "M5549"
    },
    {
      "name": "Alto de los Manantiales",
      "postal_code": "M5549"
    },
    {
      "name": "Alto del Plomo",
      "postal_code": "M5549"
    },
    {
      "name": "Alvarez Condarco",
      "postal_code": "M5549"
    },
    {
      "name": "Blanco Encalada",
      "postal_code": "M5549"
    },
    {
      "name": "Cacheuta",
      "postal_code": "M5549"
    },
    {
      "name": "Calle Terrada",
      "postal_code": "M5507"
    },
    {
      "name": "Campamento Cacheuta YPF",
      "postal_code": "M5549"
    },
    {
      "name": "Carbometal",
      "postal_code": "M5505"
    },
    {
      "name": "Carlos Subercaseux",
      "postal_code": "M5549"
    },
    {
      "name": "Carrizal de Abajo",
      "postal_code": "M5556"
    },
    {
      "name": "Carrizal de Arriba",
      "postal_code": "M5509"
    },
    {
      "name": "Carrodilla la Puntilla",
      "postal_code": "M5505"
    },
    {
      "name": "Casa de Piedra",
      "postal_code": "M5549"
    },
    {
      "name": "Cerrillos",
      "postal_code": "M5509"
    },
    {
      "name": "Cerrillos al Norte",
      "postal_code": "M5509"
    },
    {
      "name": "Cerrillos al Sud",
      "postal_code": "M5509"
    },
    {
      "name": "Chacras de Coria",
      "postal_code": "M5528"
    },
    {
      "name": "Colonia Barraquero",
      "postal_code": "M5509"
    },
    {
      "name": "Colonia Cano",
      "postal_code": "M5524"
    },
    {
      "name": "Colonia Funes",
      "postal_code": "M5509"
    },
    {
      "name": "Concha Subercaseux",
      "postal_code": "M5549"
    },
    {
      "name": "Dique Río Mendoza",
      "postal_code": "M5507"
    },
    {
      "name": "Distrito Compuerta",
      "postal_code": "M5507"
    },
    {
      "name": "El Altillo",
      "postal_code": "M5549"
    },
    {
      "name": "El Carrizal",
      "postal_code": "M5509"
    },
    {
      "name": "El Carrizal de Abajo",
      "postal_code": "M5509"
    },
    {
      "name": "El Refugio",
      "postal_code": "M5634"
    },
    {
      "name": "El Salto",
      "postal_code": "M5549"
    },
    {
      "name": "Glaciares del Río Blanco",
      "postal_code": "M5549"
    },
    {
      "name": "Kilometro 1085",
      "postal_code": "M5549"
    },
    {
      "name": "Kilometro 55",
      "postal_code": "M5549"
    },
    {
      "name": "Las Carditas",
      "postal_code": "M5549"
    },
    {
      "name": "Las Chacritas",
      "postal_code": "M5549"
    },
    {
      "name": "Las Colonias",
      "postal_code": "M5509"
    },
    {
      "name": "Las Compuertas",
      "postal_code": "M5550"
    },
    {
      "name": "Las Vegas",
      "postal_code": "M5613"
    },
    {
      "name": "Los Filtros",
      "postal_code": "M5505"
    },
    {
      "name": "Los Papagayos",
      "postal_code": "M5549"
    },
    {
      "name": "Lotes de Gaviola",
      "postal_code": "M5507"
    },
    {
      "name": "Luján de Cuyo",
      "postal_code": "M5507"
    },
    {
      "name": "Mayor Drummond",
      "postal_code": "M5534"
    },
    {
      "name": "Minas de Petroleo",
      "postal_code": "M5509"
    },
    {
      "name": "Paso de los Andes",
      "postal_code": "M5505"
    },
    {
      "name": "Perdriel",
      "postal_code": "M5544"
    },
    {
      "name": "Petroleo",
      "postal_code": "M5549"
    },
    {
      "name": "Potrerillos",
      "postal_code": "M5552"
    },
    {
      "name": "Puesto la Jiralla",
      "postal_code": "M5507"
    },
    {
      "name": "San Ignacio",
      "postal_code": "M5549"
    },
    {
      "name": "Ugarteche",
      "postal_code": "M5546"
    },
    {
      "name": "Villa Gaviola",
      "postal_code": "M5507"
    },
    {
      "name": "Vistalba",
      "postal_code": "M5509"
    },
    {
      "name": "Barcala",
      "postal_code": "M5587"
    },
    {
      "name": "Barrancas",
      "postal_code": "M5517"
    },
    {
      "name": "Barrio Ferri",
      "postal_code": "M5531"
    },
    {
      "name": "Barrio Jardín Luzuriaga",
      "postal_code": "M5513"
    },
    {
      "name": "Barrio San Eduardo",
      "postal_code": "M5578"
    },
    {
      "name": "Cartellone",
      "postal_code": "M5658"
    },
    {
      "name": "Cespedes",
      "postal_code": "M5517"
    },
    {
      "name": "Chachingo",
      "postal_code": "M5517"
    },
    {
      "name": "Colonia Bombal",
      "postal_code": "M5529"
    },
    {
      "name": "Colonia Jara",
      "postal_code": "M5529"
    },
    {
      "name": "Coquimbito",
      "postal_code": "M5522"
    },
    {
      "name": "Cruz de Piedra",
      "postal_code": "M5586"
    },
    {
      "name": "El Altillo",
      "postal_code": "M5531"
    },
    {
      "name": "El Paraiso",
      "postal_code": "M5531"
    },
    {
      "name": "Finca el Arroz",
      "postal_code": "M5531"
    },
    {
      "name": "Finca los Alamos",
      "postal_code": "M5531"
    },
    {
      "name": "Fray Luis Beltran",
      "postal_code": "M5531"
    },
    {
      "name": "General Gutierrez",
      "postal_code": "M5511"
    },
    {
      "name": "General Ortega",
      "postal_code": "M5606"
    },
    {
      "name": "Isla Chica",
      "postal_code": "M5591"
    },
    {
      "name": "Isla Grande",
      "postal_code": "M5672"
    },
    {
      "name": "La Jaula",
      "postal_code": "M5517"
    },
    {
      "name": "Los Alamos",
      "postal_code": "M5656"
    },
    {
      "name": "Lunlunta",
      "postal_code": "M5593"
    },
    {
      "name": "Luzuriaga",
      "postal_code": "M5516"
    },
    {
      "name": "Maipú",
      "postal_code": "M5515"
    },
    {
      "name": "Marquez Escuela 117",
      "postal_code": "M5517"
    },
    {
      "name": "Maza",
      "postal_code": "M5517"
    },
    {
      "name": "Pedregal",
      "postal_code": "M5651"
    },
    {
      "name": "Rodeo del Medio",
      "postal_code": "M5529"
    },
    {
      "name": "Russell",
      "postal_code": "M5581"
    },
    {
      "name": "San Roque",
      "postal_code": "M5650"
    },
    {
      "name": "Santa Blanca",
      "postal_code": "M5655"
    },
    {
      "name": "Sarmiento",
      "postal_code": "M5513"
    },
    {
      "name": "Teresa B de Tittarelli",
      "postal_code": "M5589"
    },
    {
      "name": "Valle Hermoso",
      "postal_code": "M5587"
    },
    {
      "name": "Villa Seca",
      "postal_code": "M5588"
    }
  ]
}
